{"type":"FeatureCollection", "features": [
{"type":"Feature","geometry":{"type":"Polygon","coordinates":[[[-91.41942,40.37826],[-91.44483,40.36317],[-91.46214,40.34241],[-91.49273,40.27822],[-91.49052,40.2595],[-91.5065,40.2363],[-91.50448,40.19826],[-91.51297,40.18106],[-91.50822,40.15767],[-91.51032,40.12799],[-91.48961,40.05744],[-91.49488,40.03645],[-91.44724,39.9595],[-91.42183,39.93297],[-91.42088,39.91487],[-91.44351,39.89358],[-91.44784,39.87795],[-91.42952,39.8378],[-91.37797,39.81127],[-91.36174,39.78508],[-91.37001,39.73252],[-91.35275,39.71528],[-91.27614,39.66576],[-91.24122,39.63007],[-91.21664,39.61512],[-91.18592,39.60512],[-91.17465,39.59331],[-91.16842,39.56493],[-91.14827,39.5458],[-91.10031,39.53869],[-91.07531,39.50285],[-91.0643,39.49464],[-91.05944,39.46886],[-91.03827,39.44844],[-90.99379,39.42296],[-90.9483,39.4075],[-90.93401,39.39213],[-90.908,39.38081],[-90.89378,39.36734],[-90.84011,39.34044],[-90.81685,39.3205],[-90.79346,39.3095],[-90.7516,39.26543],[-90.72698,39.25117],[-90.71711,39.21391],[-90.70915,39.15511],[-90.68605,39.11779],[-90.68274,39.08835],[-90.71254,39.05706],[-90.71158,39.0468],[-90.67819,38.99185],[-90.67595,38.96214],[-90.66347,38.92738],[-90.62512,38.88865],[-90.58339,38.86903],[-90.54403,38.87505],[-90.50745,38.90277],[-90.48697,38.92598],[-90.47212,38.95884],[-90.45079,38.96776],[-90.40637,38.96255],[-90.38313,38.95545],[-90.30945,38.92412],[-90.25025,38.91934],[-90.22304,38.90739],[-90.19761,38.88765],[-90.16641,38.87635],[-90.11333,38.84931],[-90.10911,38.83745],[-90.12311,38.79805],[-90.16641,38.77265],[-90.18341,38.74685],[-90.20521,38.73215],[-90.21201,38.71175],[-90.18261,38.66535],[-90.17881,38.62915],[-90.19181,38.59895],[-90.22421,38.57505],[-90.26031,38.52835],[-90.29278,38.42865],[-90.3409,38.38881],[-90.36822,38.34025],[-90.37266,38.28623],[-90.36639,38.24587],[-90.3539,38.21386],[-90.32235,38.18159],[-90.29076,38.17045],[-90.27493,38.15762],[-90.24312,38.11267],[-90.21871,38.09437],[-90.17716,38.07115],[-90.15785,38.0748],[-90.13079,38.06234],[-90.12619,38.0407],[-90.09377,38.01783],[-90.05937,38.01554],[-90.00533,37.96801],[-89.98866,37.96181],[-89.94075,37.97104],[-89.92539,37.95413],[-89.95965,37.9402],[-89.97422,37.91922],[-89.9525,37.88322],[-89.92318,37.87067],[-89.90183,37.86982],[-89.88147,37.87959],[-89.84479,37.90557],[-89.79804,37.87966],[-89.79609,37.85951],[-89.73987,37.84693],[-89.70284,37.81681],[-89.66964,37.79992],[-89.66038,37.7863],[-89.66799,37.75948],[-89.64953,37.7455],[-89.61728,37.74972],[-89.59657,37.73289],[-89.58332,37.71326],[-89.52573,37.69844],[-89.51201,37.68553],[-89.51772,37.64122],[-89.4784,37.59887],[-89.49405,37.58012],[-89.51654,37.5845],[-89.52192,37.56074],[-89.51645,37.53556],[-89.49205,37.49401],[-89.4712,37.46647],[-89.45097,37.45007],[-89.43413,37.42685],[-89.42246,37.39713],[-89.42818,37.35616],[-89.43604,37.34444],[-89.49119,37.33136],[-89.51184,37.31083],[-89.51834,37.2855],[-89.48991,37.25132],[-89.46069,37.25058],[-89.4675,37.22184],[-89.46186,37.19952],[-89.4352,37.15209],[-89.41447,37.12505],[-89.38417,37.10327],[-89.37561,37.08594],[-89.38519,37.05775],[-89.37828,37.03961],[-89.31717,37.01277],[-89.29213,36.99219],[-89.26624,36.9963],[-89.25761,37.0155],[-89.27771,37.03614],[-89.30137,37.04498],[-89.30773,37.06965],[-89.25994,37.06407],[-89.23405,37.03728],[-89.19849,37.01172],[-89.1921,36.98],[-89.17001,36.9703],[-89.13268,36.9822],[-89.16645,37.00334],[-89.18251,37.03728],[-89.16809,37.07422],[-89.14285,37.09902],[-89.12507,37.10881],[-89.10359,37.13212],[-89.09293,37.15644],[-89.07622,37.17513],[-89.02998,37.21114],[-89.00097,37.2244],[-88.97471,37.22971],[-88.91618,37.22399],[-88.80572,37.1886],[-88.7321,37.14396],[-88.68777,37.13938],[-88.61144,37.11274],[-88.58945,37.099],[-88.57325,37.08],[-88.52144,37.06558],[-88.48218,37.06737],[-88.46059,37.0743],[-88.44477,37.09526],[-88.44354,37.10919],[-88.4244,37.15243],[-88.43149,37.1603],[-88.44776,37.20353],[-88.47175,37.22016],[-88.48498,37.24077],[-88.50933,37.26213],[-88.51594,37.28404],[-88.5115,37.29853],[-88.48695,37.3396],[-88.47659,37.38688],[-88.456,37.40848],[-88.40881,37.42522],[-88.36156,37.40293],[-88.31258,37.44059],[-88.28167,37.4526],[-88.17528,37.46379],[-88.13514,37.47163],[-88.08176,37.47302],[-88.06256,37.49595],[-88.06902,37.5253],[-88.08805,37.53512],[-88.10314,37.55394],[-88.13428,37.57464],[-88.14175,37.60285],[-88.15837,37.63995],[-88.15821,37.66454],[-88.12503,37.70709],[-88.0638,37.73865],[-88.0426,37.76712],[-88.02803,37.79922],[-88.03762,37.80986],[-88.05966,37.8012],[-88.09004,37.81677],[-88.08573,37.82939],[-88.05805,37.82245],[-88.03301,37.82438],[-88.03331,37.84192],[-88.05942,37.84873],[-88.07853,37.87912],[-88.09496,37.89369],[-88.08624,37.90571],[-88.05537,37.89124],[-88.01335,37.89485],[-88.02006,37.9129],[-88.05192,37.91589],[-88.05476,37.93349],[-88.03041,37.9301],[-88.03679,37.95679],[-88.02087,37.95935],[-88.01257,37.97706],[-88.02583,38.00724],[-88.01693,38.02405],[-88.03413,38.03204],[-88.03263,38.05174],[-88.00133,38.05154],[-87.96723,38.06711],[-87.95666,38.0862],[-87.96046,38.09909],[-88.0047,38.08397],[-88.01673,38.09726],[-87.99831,38.10849],[-87.9753,38.11005],[-87.96946,38.13074],[-87.94547,38.12662],[-87.91062,38.1666],[-87.94049,38.1749],[-87.96986,38.19179],[-87.98397,38.20911],[-87.97963,38.24055],[-87.96022,38.23712],[-87.9503,38.27679],[-87.93356,38.2959],[-87.90684,38.26963],[-87.88785,38.2853],[-87.88008,38.30535],[-87.85965,38.27671],[-87.84345,38.27817],[-87.83095,38.29937],[-87.83198,38.32697],[-87.82341,38.34597],[-87.80607,38.36314],[-87.78308,38.36886],[-87.74525,38.409],[-87.73197,38.45078],[-87.75593,38.45588],[-87.74464,38.47727],[-87.71405,38.47988],[-87.68592,38.49184],[-87.67238,38.5074],[-87.64534,38.51016],[-87.66923,38.54174],[-87.6229,38.5862],[-87.62735,38.60544],[-87.59725,38.66531],[-87.53123,38.68404],[-87.50534,38.73497],[-87.4959,38.78543],[-87.52734,38.81812],[-87.52589,38.8488],[-87.54261,38.86664],[-87.54429,38.88895],[-87.51663,38.933],[-87.51335,38.956],[-87.5295,38.97193],[-87.57653,38.98671],[-87.56987,39.02311],[-87.58021,39.04194],[-87.57259,39.05729],[-87.6011,39.0814],[-87.61596,39.08257],[-87.61838,39.10428],[-87.6528,39.10684],[-87.64314,39.12856],[-87.65874,39.136],[-87.63649,39.16883],[-87.6194,39.17207],[-87.60304,39.1913],[-87.58659,39.19963],[-87.57456,39.2184],[-87.58065,39.25524],[-87.60557,39.2624],[-87.60592,39.31108],[-87.58908,39.33383],[-87.56069,39.33885],[-87.54588,39.35215],[-87.53165,39.34806],[-87.5323,39.63611],[-87.53326,39.87198],[-87.53146,40.14799],[-87.52632,40.49399],[-87.52584,40.8069],[-87.52643,41.02437],[-87.52673,41.29818],[-87.52554,41.48281],[-87.52416,41.70831],[-87.53106,41.74807],[-87.5542,41.76058],[-87.57286,41.77934],[-87.58219,41.80436],[-87.60945,41.84523],[-87.61625,41.86893],[-87.61428,41.89364],[-87.62294,41.90202],[-87.6392,41.96621],[-87.654,41.98898],[-87.66898,42.02914],[-87.67146,42.05833],[-87.68236,42.07573],[-87.71096,42.09533],[-87.73616,42.12081],[-87.80177,42.21055],[-87.82857,42.26992],[-87.83477,42.30152],[-87.82583,42.35549],[-87.80326,42.39048],[-87.80458,42.43122],[-87.79807,42.47172],[-87.80209,42.49258],[-88.11528,42.49622],[-88.27169,42.49482],[-88.63865,42.49504],[-88.78668,42.49198],[-88.99266,42.49603],[-89.25076,42.49799],[-89.52254,42.50189],[-89.6676,42.50496],[-89.95529,42.50563],[-90.07367,42.50828],[-90.40593,42.50689],[-90.64284,42.50848],[-90.65593,42.4917],[-90.65403,42.4785],[-90.62433,42.4589],[-90.57074,42.4417],[-90.55502,42.41614],[-90.47728,42.38379],[-90.44387,42.35522],[-90.41594,42.3227],[-90.43088,42.27823],[-90.41933,42.25447],[-90.39111,42.22547],[-90.35696,42.20545],[-90.32827,42.20105],[-90.28217,42.17885],[-90.25013,42.17147],[-90.20948,42.15268],[-90.2014,42.13094],[-90.17097,42.1252],[-90.16289,42.11672],[-90.16836,42.07578],[-90.16448,42.04211],[-90.15158,42.03063],[-90.14006,42.00325],[-90.14622,41.98133],[-90.16214,41.96129],[-90.16385,41.94493],[-90.1516,41.931],[-90.15358,41.90661],[-90.17004,41.87644],[-90.18397,41.83307],[-90.18797,41.80316],[-90.22226,41.79313],[-90.27863,41.76736],[-90.31522,41.73426],[-90.31469,41.69483],[-90.33452,41.67956],[-90.34345,41.64696],[-90.33953,41.59863],[-90.34323,41.58783],[-90.41283,41.56533],[-90.46143,41.52353],[-90.50063,41.51803],[-90.54093,41.52613],[-90.59524,41.51103],[-90.60594,41.49423],[-90.65584,41.46213],[-90.73754,41.45013],[-90.83741,41.45562],[-90.85755,41.45275],[-90.90047,41.43115],[-90.93002,41.4214],[-90.97517,41.43399],[-91.02779,41.4236],[-91.04782,41.4109],[-91.05158,41.38528],[-91.06506,41.3691],[-91.0775,41.30183],[-91.09203,41.28691],[-91.11419,41.25003],[-91.11365,41.2414],[-91.0659,41.19952],[-91.04154,41.16614],[-91.00759,41.16618],[-90.98966,41.15572],[-90.94663,41.09663],[-90.94938,41.07271],[-90.94225,41.0347],[-90.94595,41.0065],[-90.95814,40.97977],[-90.95197,40.95824],[-90.96292,40.92496],[-90.9985,40.90812],[-91.02156,40.88402],[-91.04465,40.86836],[-91.05643,40.84839],[-91.09007,40.82464],[-91.09685,40.81162],[-91.0917,40.77971],[-91.1082,40.75094],[-91.11573,40.72517],[-91.11194,40.69702],[-91.12393,40.66915],[-91.18698,40.6373],[-91.24785,40.63839],[-91.30652,40.62623],[-91.34873,40.6097],[-91.37975,40.57445],[-91.40148,40.55946],[-91.4062,40.5427],[-91.38807,40.53307],[-91.36906,40.51253],[-91.36491,40.48417],[-91.37814,40.45639],[-91.38096,40.4354],[-91.37372,40.41789],[-91.37575,40.39188],[-91.41942,40.37826]]]},"properties":{"GEOID":"17","NAME":"Illinois","STATEFP":"17"}}
]}