{"type":"FeatureCollection", "features": [
{"type":"Feature","geometry":{"type":"Polygon","coordinates":[[[-88.26287,41.98638],[-88.26195,41.72465],[-88.26127,41.72466],[-88.03035,41.72889],[-88.02897,41.68524],[-87.96667,41.68674],[-87.91426,41.7166],[-87.92048,41.99389],[-88.26287,41.98638]]]},"properties":{"GEOID":"17043","NAME":"DuPage"}},
{"type":"Feature","geometry":{"type":"Polygon","coordinates":[[[-90.43942,41.064],[-90.44434,40.71487],[-89.98606,40.71236],[-89.98548,40.97449],[-89.98456,41.14939],[-90.43765,41.15146],[-90.43942,41.064]]]},"properties":{"GEOID":"17095","NAME":"Knox"}},
{"type":"Feature","geometry":{"type":"Polygon","coordinates":[[[-88.19939,42.49602],[-88.19958,42.15426],[-87.75914,42.15225],[-87.80177,42.21055],[-87.83477,42.30152],[-87.80326,42.39048],[-87.80209,42.49258],[-88.19939,42.49602]]]},"properties":{"GEOID":"17097","NAME":"Lake"}},
{"type":"Feature","geometry":{"type":"Polygon","coordinates":[[[-89.70424,38.41578],[-89.70326,38.2194],[-89.5928,38.21927],[-89.1476,38.2129],[-89.14439,38.47388],[-89.14387,38.50309],[-89.34387,38.51074],[-89.47812,38.47138],[-89.61549,38.47185],[-89.70424,38.41578]]]},"properties":{"GEOID":"17189","NAME":"Washington"}},
{"type":"Feature","geometry":{"type":"Polygon","coordinates":[[[-87.95467,38.57023],[-87.94233,38.4606],[-87.97722,38.37784],[-87.95617,38.29187],[-87.99063,38.25963],[-87.98772,38.25691],[-87.9503,38.27679],[-87.84345,38.27817],[-87.83198,38.32697],[-87.74369,38.41439],[-87.71405,38.47988],[-87.67238,38.5074],[-87.65153,38.56817],[-87.91229,38.5701],[-87.95467,38.57023]]]},"properties":{"GEOID":"17185","NAME":"Wabash"}},
{"type":"Feature","geometry":{"type":"Polygon","coordinates":[[[-89.70695,38.65502],[-89.70424,38.41578],[-89.61549,38.47185],[-89.47812,38.47138],[-89.34387,38.51074],[-89.14387,38.50309],[-89.13839,38.73633],[-89.25418,38.74202],[-89.59732,38.74324],[-89.5951,38.65595],[-89.70695,38.65502]]]},"properties":{"GEOID":"17027","NAME":"Clinton"}},
{"type":"Feature","geometry":{"type":"Polygon","coordinates":[[[-89.99509,40.10891],[-89.99451,39.90193],[-89.76917,39.90235],[-89.70186,39.91679],[-89.69826,39.97531],[-89.57829,39.97613],[-89.57913,40.09242],[-89.60169,40.12238],[-89.66896,40.16066],[-89.7492,40.12685],[-89.9746,40.13571],[-89.99509,40.10891]]]},"properties":{"GEOID":"17129","NAME":"Menard"}},
{"type":"Feature","geometry":{"type":"Polygon","coordinates":[[[-88.26127,41.72466],[-88.25223,41.46307],[-88.24414,41.20157],[-88.01181,41.20551],[-88.01392,41.29245],[-87.52673,41.29805],[-87.5257,41.47028],[-87.7903,41.46985],[-87.79279,41.55854],[-87.90938,41.55682],[-87.91193,41.64393],[-88.02769,41.64151],[-88.02897,41.68524],[-88.03035,41.72889],[-88.26127,41.72466]]]},"properties":{"GEOID":"17197","NAME":"Will"}},
{"type":"Feature","geometry":{"type":"Polygon","coordinates":[[[-88.74516,40.05519],[-88.74567,39.79215],[-88.47318,39.79184],[-88.46221,39.87909],[-88.46042,40.28193],[-88.57488,40.2815],[-88.68799,40.14227],[-88.68819,40.09855],[-88.74534,40.09881],[-88.74516,40.05519]]]},"properties":{"GEOID":"17147","NAME":"Piatt"}},
{"type":"Feature","geometry":{"type":"Polygon","coordinates":[[[-88.23845,42.15425],[-88.23819,42.06699],[-88.26287,41.98638],[-87.92048,41.99389],[-87.91426,41.7166],[-87.96667,41.68674],[-88.02897,41.68524],[-88.02769,41.64151],[-87.91193,41.64393],[-87.90938,41.55682],[-87.79279,41.55854],[-87.7903,41.46985],[-87.5257,41.47028],[-87.52416,41.70831],[-87.60945,41.84523],[-87.6392,41.96621],[-87.68236,42.07573],[-87.75914,42.15225],[-88.19958,42.15426],[-88.23845,42.15425]]]},"properties":{"GEOID":"17031","NAME":"Cook"}},
{"type":"Feature","geometry":{"type":"Polygon","coordinates":[[[-88.70676,37.86346],[-88.70855,37.59928],[-88.70855,37.59906],[-88.4127,37.59963],[-88.37543,37.5996],[-88.37453,37.90768],[-88.70662,37.9068],[-88.70676,37.86346]]]},"properties":{"GEOID":"17165","NAME":"Saline"}},
{"type":"Feature","geometry":{"type":"Polygon","coordinates":[[[-91.07194,41.33359],[-91.07196,41.33336],[-90.43374,41.32699],[-90.43193,41.45683],[-90.33266,41.514],[-90.19653,41.54013],[-90.18554,41.58457],[-90.16185,41.64461],[-90.22975,41.67538],[-90.24238,41.78296],[-90.31636,41.72888],[-90.34345,41.64696],[-90.34323,41.58783],[-90.41283,41.56533],[-90.46143,41.52353],[-90.59524,41.51103],[-90.65584,41.46213],[-90.78628,41.45289],[-90.85755,41.45275],[-90.93002,41.4214],[-90.97517,41.43399],[-91.04782,41.4109],[-91.07194,41.33359]]]},"properties":{"GEOID":"17161","NAME":"Rock Island"}},
{"type":"Feature","geometry":{"type":"Polygon","coordinates":[[[-88.1478,38.56904],[-88.15089,38.25616],[-87.99063,38.25963],[-87.95617,38.29187],[-87.97722,38.37784],[-87.94233,38.4606],[-87.95467,38.57023],[-88.1478,38.56904]]]},"properties":{"GEOID":"17047","NAME":"Edwards"}},
{"type":"Feature","geometry":{"type":"Polygon","coordinates":[[[-90.35452,40.12422],[-90.31477,40.11571],[-90.28886,40.05873],[-90.13484,40.06225],[-90.04101,40.10904],[-89.99509,40.10891],[-89.9746,40.13571],[-89.7492,40.12685],[-89.66896,40.16066],[-89.60169,40.12238],[-89.60298,40.32013],[-89.71493,40.31922],[-89.7171,40.43565],[-89.92468,40.43592],[-90.03303,40.37781],[-90.06874,40.2961],[-90.12748,40.22697],[-90.19963,40.18381],[-90.35452,40.12422]]]},"properties":{"GEOID":"17125","NAME":"Mason"}},
{"type":"Feature","geometry":{"type":"Polygon","coordinates":[[[-90.90422,40.6392],[-90.90976,40.28439],[-90.45023,40.27634],[-90.44563,40.62764],[-90.78965,40.63575],[-90.90422,40.6392]]]},"properties":{"GEOID":"17109","NAME":"McDonough"}},
{"type":"Feature","geometry":{"type":"Polygon","coordinates":[[[-89.48652,37.33455],[-89.51834,37.2855],[-89.48873,37.25151],[-89.41447,37.12505],[-89.37561,37.08594],[-89.37828,37.03961],[-89.31327,37.00956],[-89.25994,37.06407],[-89.19849,37.01172],[-89.13268,36.9822],[-89.16645,37.00334],[-89.17188,37.06818],[-89.25397,37.09939],[-89.26731,37.18053],[-89.2485,37.25969],[-89.20272,37.28938],[-89.24857,37.3353],[-89.48652,37.33455]]]},"properties":{"GEOID":"17003","NAME":"Alexander"}},
{"type":"Feature","geometry":{"type":"Polygon","coordinates":[[[-88.94039,42.49505],[-88.93973,42.15232],[-88.70558,42.15354],[-88.70742,42.49359],[-88.77659,42.49202],[-88.94039,42.49505]]]},"properties":{"GEOID":"17007","NAME":"Boone"}},
{"type":"Feature","geometry":{"type":"Polygon","coordinates":[[[-89.15118,37.862],[-89.15362,37.60024],[-89.0414,37.59658],[-88.70855,37.59928],[-88.70676,37.86346],[-89.15118,37.862]]]},"properties":{"GEOID":"17199","NAME":"Williamson"}},
{"type":"Feature","geometry":{"type":"Polygon","coordinates":[[[-89.68849,42.19911],[-89.68537,41.93034],[-89.62933,41.90162],[-89.36039,41.90262],[-89.36058,41.88802],[-88.94128,41.89175],[-88.93973,42.15232],[-89.1728,42.15042],[-89.173,42.20424],[-89.39619,42.20192],[-89.68849,42.19911]]]},"properties":{"GEOID":"17141","NAME":"Ogle"}},
{"type":"Feature","geometry":{"type":"Polygon","coordinates":[[[-91.50504,40.19993],[-91.51032,40.12799],[-91.49488,40.03645],[-91.43548,39.94528],[-91.44784,39.87795],[-91.42952,39.8378],[-91.37797,39.81127],[-91.36512,39.75872],[-90.91596,39.7572],[-90.91667,39.84493],[-90.91347,40.10446],[-90.91197,40.19309],[-91.50504,40.19993]]]},"properties":{"GEOID":"17001","NAME":"Adams"}},
{"type":"Feature","geometry":{"type":"Polygon","coordinates":[[[-90.93678,39.39949],[-90.79346,39.3095],[-90.72698,39.25117],[-90.72183,39.22411],[-90.68274,39.08835],[-90.71254,39.05706],[-90.66343,38.93422],[-90.62512,38.88865],[-90.54403,38.87505],[-90.45081,38.96776],[-90.51964,38.95394],[-90.57017,38.99329],[-90.60357,39.11759],[-90.59123,39.19862],[-90.62229,39.36509],[-90.61377,39.39542],[-90.93678,39.39949]]]},"properties":{"GEOID":"17013","NAME":"Calhoun"}},
{"type":"Feature","geometry":{"type":"Polygon","coordinates":[[[-88.36065,39.17112],[-88.36174,38.91085],[-88.36176,38.85212],[-88.25858,38.84753],[-87.94592,38.85015],[-87.95038,39.17488],[-88.00777,39.17392],[-88.36065,39.17112]]]},"properties":{"GEOID":"17079","NAME":"Jasper"}},
{"type":"Feature","geometry":{"type":"Polygon","coordinates":[[[-88.80532,39.21626],[-88.80679,38.91159],[-88.69353,38.91462],[-88.36174,38.91085],[-88.36065,39.17112],[-88.47086,39.17146],[-88.47091,39.21503],[-88.80532,39.21626]]]},"properties":{"GEOID":"17049","NAME":"Effingham"}},
{"type":"Feature","geometry":{"type":"Polygon","coordinates":[[[-88.69516,38.8263],[-88.69846,38.60606],[-88.25398,38.5995],[-88.29753,38.63473],[-88.2578,38.73092],[-88.25858,38.84753],[-88.36176,38.85212],[-88.36174,38.91085],[-88.69353,38.91462],[-88.69516,38.8263]]]},"properties":{"GEOID":"17025","NAME":"Clay"}},
{"type":"Feature","geometry":{"type":"Polygon","coordinates":[[[-88.69896,38.47491],[-88.70239,38.25666],[-88.37037,38.25532],[-88.15089,38.25616],[-88.1478,38.56904],[-88.14819,38.59799],[-88.25398,38.5995],[-88.69846,38.60606],[-88.69896,38.47491]]]},"properties":{"GEOID":"17191","NAME":"Wayne"}},
{"type":"Feature","geometry":{"type":"Polygon","coordinates":[[[-90.60357,39.11759],[-90.57017,38.99329],[-90.51964,38.95394],[-90.45081,38.96776],[-90.27571,38.92345],[-90.27396,38.99904],[-90.14598,38.9993],[-90.14812,39.26195],[-90.20177,39.2255],[-90.31393,39.22513],[-90.31329,39.17429],[-90.48762,39.17501],[-90.58059,39.18489],[-90.60357,39.11759]]]},"properties":{"GEOID":"17083","NAME":"Jersey"}},
{"type":"Feature","geometry":{"type":"Polygon","coordinates":[[[-90.45023,40.27634],[-90.45192,40.1888],[-90.19963,40.18381],[-90.12748,40.22697],[-90.06874,40.2961],[-90.03303,40.37781],[-89.92468,40.43592],[-89.87246,40.51323],[-89.87368,40.62498],[-89.98902,40.62584],[-89.98606,40.71236],[-90.44434,40.71487],[-90.44563,40.62764],[-90.45023,40.27634]]]},"properties":{"GEOID":"17057","NAME":"Fulton"}},
{"type":"Feature","geometry":{"type":"Polygon","coordinates":[[[-89.1476,38.2129],[-89.12963,38.12477],[-88.70461,38.1252],[-88.70239,38.25666],[-88.69896,38.47491],[-89.14439,38.47388],[-89.1476,38.2129]]]},"properties":{"GEOID":"17081","NAME":"Jefferson"}},
{"type":"Feature","geometry":{"type":"Polygon","coordinates":[[[-88.93139,40.92774],[-88.92933,40.75334],[-88.58427,40.75761],[-88.5745,40.61655],[-88.45947,40.61735],[-88.23495,40.61821],[-88.2473,40.99456],[-88.2515,41.11422],[-88.58624,41.10829],[-88.93088,41.1059],[-88.93139,40.92774]]]},"properties":{"GEOID":"17105","NAME":"Livingston"}},
{"type":"Feature","geometry":{"type":"Polygon","coordinates":[[[-89.59507,37.95534],[-89.68077,37.82209],[-89.67442,37.80301],[-89.66799,37.75948],[-89.61728,37.74972],[-89.58332,37.71326],[-89.51201,37.68553],[-89.51772,37.64122],[-89.4784,37.59887],[-89.52152,37.57215],[-89.46508,37.56441],[-89.45318,37.59998],[-89.15362,37.60024],[-89.15118,37.862],[-89.15083,37.9502],[-89.1776,37.95031],[-89.59507,37.95534]]]},"properties":{"GEOID":"17077","NAME":"Jackson"}},
{"type":"Feature","geometry":{"type":"Polygon","coordinates":[[[-89.62933,41.90162],[-89.63149,41.58495],[-89.16656,41.58529],[-89.16715,41.62866],[-88.93868,41.62832],[-88.94128,41.89175],[-89.36058,41.88802],[-89.36039,41.90262],[-89.62933,41.90162]]]},"properties":{"GEOID":"17103","NAME":"Lee"}},
{"type":"Feature","geometry":{"type":"Polygon","coordinates":[[[-88.45947,40.61735],[-88.45996,40.39885],[-87.93239,40.3994],[-87.93531,40.48592],[-88.1179,40.48786],[-88.13193,40.99778],[-88.2473,40.99456],[-88.23495,40.61821],[-88.45947,40.61735]]]},"properties":{"GEOID":"17053","NAME":"Ford"}},
{"type":"Feature","geometry":{"type":"Polygon","coordinates":[[[-91.07196,41.33336],[-91.11365,41.2414],[-91.04154,41.16614],[-90.98966,41.15572],[-90.94938,41.07271],[-90.94899,41.07025],[-90.78519,41.06875],[-90.43942,41.064],[-90.43765,41.15146],[-90.43374,41.32699],[-91.07196,41.33336]]]},"properties":{"GEOID":"17131","NAME":"Mercer"}},
{"type":"Feature","geometry":{"type":"Polygon","coordinates":[[[-89.14876,40.28204],[-89.14476,40.04885],[-88.74516,40.05519],[-88.74534,40.09881],[-88.68819,40.09855],[-88.68799,40.14227],[-88.57488,40.2815],[-89.14876,40.28204]]]},"properties":{"GEOID":"17039","NAME":"De Witt"}},
{"type":"Feature","geometry":{"type":"Polygon","coordinates":[[[-88.2515,41.11422],[-88.2473,40.99456],[-88.13193,40.99778],[-87.52634,41.01034],[-87.52659,41.16609],[-87.52673,41.29805],[-88.01392,41.29245],[-88.01181,41.20551],[-88.24414,41.20157],[-88.2515,41.11422]]]},"properties":{"GEOID":"17091","NAME":"Kankakee"}},
{"type":"Feature","geometry":{"type":"Polygon","coordinates":[[[-88.37453,37.90768],[-88.37543,37.5996],[-88.17996,37.59923],[-88.13428,37.57464],[-88.15821,37.66454],[-88.12503,37.70709],[-88.0638,37.73865],[-88.02803,37.79922],[-88.03331,37.84192],[-88.09292,37.89174],[-88.11368,37.90611],[-88.37452,37.90839],[-88.37453,37.90768]]]},"properties":{"GEOID":"17059","NAME":"Gallatin"}},
{"type":"Feature","geometry":{"type":"Polygon","coordinates":[[[-88.25858,38.84753],[-88.2578,38.73092],[-88.29753,38.63473],[-88.25398,38.5995],[-88.14819,38.59799],[-88.1478,38.56904],[-87.95467,38.57023],[-87.91229,38.5701],[-87.90811,38.85011],[-87.94592,38.85015],[-88.25858,38.84753]]]},"properties":{"GEOID":"17159","NAME":"Richland"}},
{"type":"Feature","geometry":{"type":"Polygon","coordinates":[[[-87.93239,40.3994],[-87.92876,40.22562],[-87.9421,40.22548],[-87.93764,39.8798],[-87.53319,39.883],[-87.53146,40.14813],[-87.5266,40.47688],[-87.52637,40.49124],[-87.93531,40.48592],[-87.93239,40.3994]]]},"properties":{"GEOID":"17183","NAME":"Vermilion"}},
{"type":"Feature","geometry":{"type":"Polygon","coordinates":[[[-90.20535,38.08666],[-90.13079,38.06234],[-90.00533,37.96801],[-89.93819,37.87511],[-89.90183,37.86982],[-89.84479,37.90557],[-89.79609,37.85951],[-89.73987,37.84693],[-89.67442,37.80301],[-89.68077,37.82209],[-89.59507,37.95534],[-89.5928,38.21927],[-89.70326,38.2194],[-89.89904,38.22075],[-90.03632,38.22325],[-90.036,38.1357],[-90.20535,38.08666]]]},"properties":{"GEOID":"17157","NAME":"Randolph"}},
{"type":"Feature","geometry":{"type":"Polygon","coordinates":[[[-88.70855,37.59906],[-88.71074,37.33708],[-88.49033,37.15946],[-88.49047,37.06825],[-88.46059,37.0743],[-88.4244,37.15243],[-88.44776,37.20353],[-88.51594,37.28404],[-88.47659,37.38688],[-88.41526,37.42349],[-88.4127,37.59963],[-88.70855,37.59906]]]},"properties":{"GEOID":"17151","NAME":"Pope"}},
{"type":"Feature","geometry":{"type":"Polygon","coordinates":[[[-89.2694,40.59432],[-89.26374,40.32534],[-89.26265,40.28092],[-89.14876,40.28204],[-88.57488,40.2815],[-88.46042,40.28193],[-88.45996,40.39885],[-88.45947,40.61735],[-88.5745,40.61655],[-88.58427,40.75761],[-88.92933,40.75334],[-88.9869,40.7523],[-88.9847,40.66503],[-89.04532,40.66394],[-89.13375,40.59673],[-89.2694,40.59432]]]},"properties":{"GEOID":"17113","NAME":"McLean"}},
{"type":"Feature","geometry":{"type":"Polygon","coordinates":[[[-89.99451,39.90193],[-89.9944,39.87286],[-89.98474,39.71808],[-89.92395,39.55868],[-89.92604,39.5221],[-89.70166,39.52332],[-89.53353,39.52459],[-89.53503,39.64114],[-89.47847,39.64084],[-89.47892,39.68396],[-89.42505,39.6837],[-89.4102,39.74403],[-89.32916,39.76358],[-89.25717,39.80981],[-89.21747,39.81367],[-89.21785,39.91699],[-89.40498,39.91819],[-89.4835,39.93315],[-89.48383,39.97673],[-89.57829,39.97613],[-89.69826,39.97531],[-89.70186,39.91679],[-89.76917,39.90235],[-89.99451,39.90193]]]},"properties":{"GEOID":"17167","NAME":"Sangamon"}},
{"type":"Feature","geometry":{"type":"Polygon","coordinates":[[[-91.36512,39.75872],[-91.37001,39.73252],[-91.30668,39.68488],[-91.24122,39.63007],[-91.17801,39.5982],[-91.14827,39.5458],[-91.10031,39.53869],[-91.05944,39.46886],[-90.93678,39.39949],[-90.61377,39.39542],[-90.6105,39.45745],[-90.58105,39.52173],[-90.57662,39.55954],[-90.64575,39.70459],[-90.5991,39.79006],[-90.57142,39.83896],[-90.91667,39.84493],[-90.91596,39.7572],[-91.36512,39.75872]]]},"properties":{"GEOID":"17149","NAME":"Pike"}},
{"type":"Feature","geometry":{"type":"Polygon","coordinates":[[[-87.95038,39.17488],[-87.94592,38.85015],[-87.90811,38.85011],[-87.53206,38.8525],[-87.52251,38.90239],[-87.51335,38.956],[-87.57653,38.98671],[-87.57259,39.05729],[-87.61838,39.10428],[-87.62937,39.15753],[-87.74617,39.17922],[-87.95038,39.17488]]]},"properties":{"GEOID":"17033","NAME":"Crawford"}},
{"type":"Feature","geometry":{"type":"Polygon","coordinates":[[[-89.21747,39.81367],[-89.25717,39.80981],[-89.32916,39.76358],[-89.4102,39.74403],[-89.42505,39.6837],[-89.47892,39.68396],[-89.47847,39.64084],[-89.53503,39.64114],[-89.53353,39.52459],[-89.53084,39.34886],[-89.13981,39.34889],[-89.02538,39.34592],[-89.02568,39.65418],[-89.13912,39.65513],[-89.14197,39.80127],[-89.21747,39.81367]]]},"properties":{"GEOID":"17021","NAME":"Christian"}},
{"type":"Feature","geometry":{"type":"Polygon","coordinates":[[[-89.1637,41.31019],[-89.25912,41.32253],[-89.33533,41.30074],[-89.35673,41.23304],[-89.46639,41.23387],[-89.4661,41.14852],[-89.32927,41.14793],[-89.35844,41.10385],[-89.16224,41.10401],[-89.1637,41.31019]]]},"properties":{"GEOID":"17155","NAME":"Putnam"}},
{"type":"Feature","geometry":{"type":"Polygon","coordinates":[[[-91.49726,40.24876],[-91.50504,40.19993],[-90.91197,40.19309],[-90.90976,40.28439],[-90.90422,40.6392],[-91.18543,40.63807],[-91.24785,40.63839],[-91.34873,40.6097],[-91.4062,40.5427],[-91.36906,40.51253],[-91.37575,40.39188],[-91.41942,40.37826],[-91.46214,40.34241],[-91.49726,40.24876]]]},"properties":{"GEOID":"17067","NAME":"Hancock"}},
{"type":"Feature","geometry":{"type":"Polygon","coordinates":[[[-89.40142,42.50043],[-89.39619,42.20192],[-89.173,42.20424],[-89.1728,42.15042],[-88.93973,42.15232],[-88.94039,42.49505],[-89.3658,42.50026],[-89.40142,42.50043]]]},"properties":{"GEOID":"17201","NAME":"Winnebago"}},
{"type":"Feature","geometry":{"type":"Polygon","coordinates":[[[-88.47318,39.79184],[-88.47207,39.65159],[-88.06352,39.65266],[-88.06301,39.68131],[-87.96635,39.68597],[-87.96878,39.79235],[-87.93703,39.79237],[-87.93764,39.8798],[-88.46221,39.87909],[-88.47318,39.79184]]]},"properties":{"GEOID":"17041","NAME":"Douglas"}},
{"type":"Feature","geometry":{"type":"Polygon","coordinates":[[[-89.13981,39.34889],[-89.13946,39.21777],[-88.80532,39.21626],[-88.47091,39.21503],[-88.47083,39.37452],[-88.4705,39.44704],[-88.58427,39.44758],[-88.58454,39.47699],[-88.64147,39.52096],[-88.71687,39.52121],[-88.71746,39.57934],[-88.80905,39.58024],[-88.81057,39.65322],[-89.02568,39.65418],[-89.02538,39.34592],[-89.13981,39.34889]]]},"properties":{"GEOID":"17173","NAME":"Shelby"}},
{"type":"Feature","geometry":{"type":"Polygon","coordinates":[[[-90.57142,39.83896],[-90.5991,39.79006],[-90.48306,39.78924],[-90.48332,39.75343],[-90.37126,39.75312],[-90.37297,39.66578],[-90.30067,39.63654],[-90.30183,39.52034],[-90.15378,39.52031],[-89.92604,39.5221],[-89.92395,39.55868],[-89.98474,39.71808],[-89.9944,39.87286],[-90.58353,39.87675],[-90.57142,39.83896]]]},"properties":{"GEOID":"17137","NAME":"Morgan"}},
{"type":"Feature","geometry":{"type":"Polygon","coordinates":[[[-89.0414,37.59658],[-89.0448,37.32972],[-89.01838,37.3091],[-88.92876,37.30285],[-88.90507,37.33574],[-88.71074,37.33708],[-88.70855,37.59906],[-88.70855,37.59928],[-89.0414,37.59658]]]},"properties":{"GEOID":"17087","NAME":"Johnson"}},
{"type":"Feature","geometry":{"type":"Polygon","coordinates":[[[-90.5991,39.79006],[-90.64575,39.70459],[-90.57662,39.55954],[-90.58105,39.52173],[-90.30183,39.52034],[-90.30067,39.63654],[-90.37297,39.66578],[-90.37126,39.75312],[-90.48332,39.75343],[-90.48306,39.78924],[-90.5991,39.79006]]]},"properties":{"GEOID":"17171","NAME":"Scott"}},
{"type":"Feature","geometry":{"type":"Polygon","coordinates":[[[-89.98606,40.71236],[-89.98902,40.62584],[-89.87368,40.62498],[-89.87246,40.51323],[-89.77541,40.55271],[-89.69707,40.56203],[-89.55362,40.70228],[-89.55343,40.74764],[-89.55949,40.7991],[-89.47252,40.92121],[-89.44769,40.97325],[-89.63873,40.97371],[-89.98548,40.97449],[-89.98606,40.71236]]]},"properties":{"GEOID":"17143","NAME":"Peoria"}},
{"type":"Feature","geometry":{"type":"Polygon","coordinates":[[[-90.34205,38.38722],[-90.37266,38.28623],[-90.3539,38.21386],[-90.25266,38.12781],[-90.20535,38.08666],[-90.036,38.1357],[-90.03632,38.22325],[-89.89904,38.22075],[-89.92521,38.27326],[-89.91306,38.3081],[-90.0361,38.32354],[-90.14556,38.41205],[-90.1454,38.42667],[-90.26383,38.52051],[-90.29278,38.42865],[-90.34205,38.38722]]]},"properties":{"GEOID":"17133","NAME":"Monroe"}},
{"type":"Feature","geometry":{"type":"Polygon","coordinates":[[[-90.31733,42.19365],[-90.20948,42.15268],[-90.16289,42.11672],[-90.15422,42.03307],[-90.15184,41.92892],[-89.68537,41.93034],[-89.68849,42.19911],[-89.91977,42.19688],[-90.31733,42.19365]]]},"properties":{"GEOID":"17015","NAME":"Carroll"}},
{"type":"Feature","geometry":{"type":"Polygon","coordinates":[[[-90.25777,38.53201],[-90.26383,38.52051],[-90.1454,38.42667],[-90.14556,38.41205],[-90.0361,38.32354],[-89.91306,38.3081],[-89.92521,38.27326],[-89.89904,38.22075],[-89.70326,38.2194],[-89.70424,38.41578],[-89.70695,38.65502],[-90.18124,38.66006],[-90.19181,38.59895],[-90.25777,38.53201]]]},"properties":{"GEOID":"17163","NAME":"St. Clair"}},
{"type":"Feature","geometry":{"type":"Polygon","coordinates":[[[-90.14598,38.9993],[-90.27396,38.99904],[-90.27571,38.92345],[-90.11333,38.84931],[-90.11771,38.80575],[-90.16671,38.77227],[-90.20921,38.70275],[-90.18124,38.66006],[-89.70695,38.65502],[-89.5951,38.65595],[-89.59732,38.74324],[-89.59959,38.87453],[-89.63687,38.87428],[-89.63926,38.99913],[-89.69855,38.99898],[-90.14598,38.9993]]]},"properties":{"GEOID":"17119","NAME":"Madison"}},
{"type":"Feature","geometry":{"type":"Polygon","coordinates":[[[-88.37037,38.25532],[-88.37452,37.90839],[-88.11368,37.90611],[-88.09292,37.89174],[-88.01335,37.89485],[-88.03679,37.95679],[-88.01257,37.97706],[-88.03413,38.03204],[-87.96723,38.06711],[-88.01673,38.09726],[-87.94547,38.12662],[-87.91062,38.1666],[-87.96986,38.19179],[-87.9837,38.23035],[-87.98772,38.25691],[-87.99063,38.25963],[-88.15089,38.25616],[-88.37037,38.25532]]]},"properties":{"GEOID":"17193","NAME":"White"}},
{"type":"Feature","geometry":{"type":"Polygon","coordinates":[[[-90.78519,41.06875],[-90.78965,40.63575],[-90.44563,40.62764],[-90.44434,40.71487],[-90.43942,41.064],[-90.78519,41.06875]]]},"properties":{"GEOID":"17187","NAME":"Warren"}},
{"type":"Feature","geometry":{"type":"Polygon","coordinates":[[[-89.92647,42.50579],[-89.91977,42.19688],[-89.68849,42.19911],[-89.39619,42.20192],[-89.40142,42.50043],[-89.83759,42.50554],[-89.92647,42.50579]]]},"properties":{"GEOID":"17177","NAME":"Stephenson"}},
{"type":"Feature","geometry":{"type":"Polygon","coordinates":[[[-88.58866,42.15359],[-88.60196,42.06647],[-88.60193,41.71956],[-88.26195,41.72465],[-88.26287,41.98638],[-88.23819,42.06699],[-88.23845,42.15425],[-88.58866,42.15359]]]},"properties":{"GEOID":"17089","NAME":"Kane"}},
{"type":"Feature","geometry":{"type":"Polygon","coordinates":[[[-88.47083,39.37452],[-88.47091,39.21503],[-88.47086,39.17146],[-88.36065,39.17112],[-88.00777,39.17392],[-88.01212,39.37897],[-88.47083,39.37452]]]},"properties":{"GEOID":"17035","NAME":"Cumberland"}},
{"type":"Feature","geometry":{"type":"Polygon","coordinates":[[[-88.4127,37.59963],[-88.41526,37.42349],[-88.3585,37.40482],[-88.28167,37.4526],[-88.08176,37.47302],[-88.06133,37.50531],[-88.13428,37.57464],[-88.17996,37.59923],[-88.37543,37.5996],[-88.4127,37.59963]]]},"properties":{"GEOID":"17069","NAME":"Hardin"}},
{"type":"Feature","geometry":{"type":"Polygon","coordinates":[[[-88.46042,40.28193],[-88.46221,39.87909],[-87.93764,39.8798],[-87.9421,40.22548],[-87.92876,40.22562],[-87.93239,40.3994],[-88.45996,40.39885],[-88.46042,40.28193]]]},"properties":{"GEOID":"17019","NAME":"Champaign"}},
{"type":"Feature","geometry":{"type":"Polygon","coordinates":[[[-90.43374,41.32699],[-90.43765,41.15146],[-89.98456,41.14939],[-89.86815,41.14949],[-89.85762,41.23448],[-89.85737,41.51837],[-89.86235,41.584],[-90.18554,41.58457],[-90.19653,41.54013],[-90.33266,41.514],[-90.43193,41.45683],[-90.43374,41.32699]]]},"properties":{"GEOID":"17073","NAME":"Henry"}},
{"type":"Feature","geometry":{"type":"Polygon","coordinates":[[[-91.18543,40.63807],[-90.90422,40.6392],[-90.78965,40.63575],[-90.78519,41.06875],[-90.94899,41.07025],[-90.94225,41.0347],[-90.96292,40.92496],[-90.9985,40.90812],[-91.09685,40.81162],[-91.11243,40.69628],[-91.18543,40.63807]]]},"properties":{"GEOID":"17071","NAME":"Henderson"}},
{"type":"Feature","geometry":{"type":"Polygon","coordinates":[[[-90.15378,39.52031],[-90.14812,39.26195],[-90.14598,38.9993],[-89.69855,38.99898],[-89.70369,39.34803],[-89.70166,39.52332],[-89.92604,39.5221],[-90.15378,39.52031]]]},"properties":{"GEOID":"17117","NAME":"Macoupin"}},
{"type":"Feature","geometry":{"type":"Polygon","coordinates":[[[-89.25031,39.02819],[-89.25736,38.99917],[-89.25418,38.74202],[-89.13839,38.73633],[-89.13814,38.82421],[-88.69516,38.8263],[-88.69353,38.91462],[-88.80679,38.91159],[-88.80532,39.21626],[-89.13946,39.21777],[-89.25051,39.21751],[-89.25031,39.02819]]]},"properties":{"GEOID":"17051","NAME":"Fayette"}},
{"type":"Feature","geometry":{"type":"Polygon","coordinates":[[[-89.63854,41.14855],[-89.63873,40.97371],[-89.44769,40.97325],[-89.47252,40.92121],[-89.04772,40.92575],[-89.04739,41.10479],[-89.16224,41.10401],[-89.35844,41.10385],[-89.32927,41.14793],[-89.4661,41.14852],[-89.63854,41.14855]]]},"properties":{"GEOID":"17123","NAME":"Marshall"}},
{"type":"Feature","geometry":{"type":"Polygon","coordinates":[[[-88.93868,41.62832],[-89.16715,41.62866],[-89.16656,41.58529],[-89.1637,41.31019],[-89.16224,41.10401],[-89.04739,41.10479],[-89.04772,40.92575],[-88.93139,40.92774],[-88.93088,41.1059],[-88.58624,41.10829],[-88.59596,41.45713],[-88.60224,41.63139],[-88.93868,41.62832]]]},"properties":{"GEOID":"17099","NAME":"LaSalle"}},
{"type":"Feature","geometry":{"type":"Polygon","coordinates":[[[-88.60193,41.71956],[-88.60224,41.63139],[-88.59596,41.45713],[-88.25223,41.46307],[-88.26127,41.72466],[-88.26195,41.72465],[-88.60193,41.71956]]]},"properties":{"GEOID":"17093","NAME":"Kendall"}},
{"type":"Feature","geometry":{"type":"Polygon","coordinates":[[[-89.5928,38.21927],[-89.59507,37.95534],[-89.1776,37.95031],[-89.11793,38.09631],[-89.12963,38.12477],[-89.1476,38.2129],[-89.5928,38.21927]]]},"properties":{"GEOID":"17145","NAME":"Perry"}},
{"type":"Feature","geometry":{"type":"Polygon","coordinates":[[[-90.91197,40.19309],[-90.91347,40.10446],[-90.69601,40.10397],[-90.67801,40.05275],[-90.60195,40.00332],[-90.51375,39.98789],[-90.43345,40.02441],[-90.42864,40.06035],[-90.35452,40.12422],[-90.19963,40.18381],[-90.45192,40.1888],[-90.45023,40.27634],[-90.90976,40.28439],[-90.91197,40.19309]]]},"properties":{"GEOID":"17169","NAME":"Schuyler"}},
{"type":"Feature","geometry":{"type":"Polygon","coordinates":[[[-87.93764,39.8798],[-87.93703,39.79237],[-87.96878,39.79235],[-87.96635,39.68597],[-87.96018,39.48131],[-87.68762,39.48736],[-87.53166,39.47711],[-87.53219,39.60731],[-87.53319,39.883],[-87.93764,39.8798]]]},"properties":{"GEOID":"17045","NAME":"Edgar"}},
{"type":"Feature","geometry":{"type":"Polygon","coordinates":[[[-89.87246,40.51323],[-89.92468,40.43592],[-89.7171,40.43565],[-89.71493,40.31922],[-89.60298,40.32013],[-89.26374,40.32534],[-89.2694,40.59432],[-89.32734,40.61557],[-89.33009,40.74826],[-89.55343,40.74764],[-89.55362,40.70228],[-89.69707,40.56203],[-89.77541,40.55271],[-89.87246,40.51323]]]},"properties":{"GEOID":"17179","NAME":"Tazewell"}},
{"type":"Feature","geometry":{"type":"Polygon","coordinates":[[[-87.91229,38.5701],[-87.65153,38.56817],[-87.59725,38.66531],[-87.53123,38.68404],[-87.4959,38.78543],[-87.53206,38.8525],[-87.90811,38.85011],[-87.91229,38.5701]]]},"properties":{"GEOID":"17101","NAME":"Lawrence"}},
{"type":"Feature","geometry":{"type":"Polygon","coordinates":[[[-89.47252,40.92121],[-89.55949,40.7991],[-89.55343,40.74764],[-89.33009,40.74826],[-89.32734,40.61557],[-89.2694,40.59432],[-89.13375,40.59673],[-89.04532,40.66394],[-88.9847,40.66503],[-88.9869,40.7523],[-88.92933,40.75334],[-88.93139,40.92774],[-89.04772,40.92575],[-89.47252,40.92121]]]},"properties":{"GEOID":"17203","NAME":"Woodford"}},
{"type":"Feature","geometry":{"type":"Polygon","coordinates":[[[-90.58353,39.87675],[-89.9944,39.87286],[-89.99451,39.90193],[-89.99509,40.10891],[-90.04101,40.10904],[-90.13484,40.06225],[-90.28886,40.05873],[-90.31477,40.11571],[-90.35452,40.12422],[-90.42864,40.06035],[-90.43345,40.02441],[-90.51375,39.98789],[-90.53686,39.92188],[-90.58353,39.87675]]]},"properties":{"GEOID":"17017","NAME":"Cass"}},
{"type":"Feature","geometry":{"type":"Polygon","coordinates":[[[-90.64284,42.50848],[-90.65403,42.4785],[-90.57074,42.4417],[-90.55502,42.41614],[-90.47381,42.38146],[-90.41594,42.3227],[-90.43088,42.27823],[-90.39111,42.22547],[-90.31733,42.19365],[-89.91977,42.19688],[-89.92647,42.50579],[-90.42638,42.50706],[-90.64284,42.50848]]]},"properties":{"GEOID":"17085","NAME":"Jo Daviess"}},
{"type":"Feature","geometry":{"type":"Polygon","coordinates":[[[-89.12963,38.12477],[-89.11793,38.09631],[-89.1776,37.95031],[-89.15083,37.9502],[-89.15118,37.862],[-88.70676,37.86346],[-88.70662,37.9068],[-88.70461,38.1252],[-89.12963,38.12477]]]},"properties":{"GEOID":"17055","NAME":"Franklin"}},
{"type":"Feature","geometry":{"type":"Polygon","coordinates":[[[-87.52634,41.01034],[-88.13193,40.99778],[-88.1179,40.48786],[-87.93531,40.48592],[-87.52637,40.49124],[-87.52605,40.73689],[-87.52634,41.01034]]]},"properties":{"GEOID":"17075","NAME":"Iroquois"}},
{"type":"Feature","geometry":{"type":"Polygon","coordinates":[[[-89.14387,38.50309],[-89.14439,38.47388],[-88.69896,38.47491],[-88.69846,38.60606],[-88.69516,38.8263],[-89.13814,38.82421],[-89.13839,38.73633],[-89.14387,38.50309]]]},"properties":{"GEOID":"17121","NAME":"Marion"}},
{"type":"Feature","geometry":{"type":"Polygon","coordinates":[[[-88.70461,38.1252],[-88.70662,37.9068],[-88.37453,37.90768],[-88.37452,37.90839],[-88.37037,38.25532],[-88.70239,38.25666],[-88.70461,38.1252]]]},"properties":{"GEOID":"17065","NAME":"Hamilton"}},
{"type":"Feature","geometry":{"type":"Polygon","coordinates":[[[-88.92876,37.30285],[-88.92794,37.22616],[-88.80572,37.1886],[-88.7321,37.14396],[-88.61144,37.11274],[-88.56647,37.07578],[-88.49047,37.06825],[-88.49033,37.15946],[-88.71074,37.33708],[-88.90507,37.33574],[-88.92876,37.30285]]]},"properties":{"GEOID":"17127","NAME":"Massac"}},
{"type":"Feature","geometry":{"type":"Polygon","coordinates":[[[-88.30469,42.49477],[-88.70742,42.49359],[-88.70558,42.15354],[-88.58866,42.15359],[-88.23845,42.15425],[-88.19958,42.15426],[-88.19939,42.49602],[-88.30469,42.49477]]]},"properties":{"GEOID":"17111","NAME":"McHenry"}},
{"type":"Feature","geometry":{"type":"Polygon","coordinates":[[[-89.63926,38.99913],[-89.63687,38.87428],[-89.59959,38.87453],[-89.59732,38.74324],[-89.25418,38.74202],[-89.25736,38.99917],[-89.25031,39.02819],[-89.58634,39.02833],[-89.63926,38.99913]]]},"properties":{"GEOID":"17005","NAME":"Bond"}},
{"type":"Feature","geometry":{"type":"Polygon","coordinates":[[[-88.59596,41.45713],[-88.58624,41.10829],[-88.2515,41.11422],[-88.24414,41.20157],[-88.25223,41.46307],[-88.59596,41.45713]]]},"properties":{"GEOID":"17063","NAME":"Grundy"}},
{"type":"Feature","geometry":{"type":"Polygon","coordinates":[[[-89.21785,39.91699],[-89.21747,39.81367],[-89.14197,39.80127],[-89.13912,39.65513],[-89.02568,39.65418],[-88.81057,39.65322],[-88.81271,39.74049],[-88.75784,39.73991],[-88.74567,39.79215],[-88.74516,40.05519],[-89.14476,40.04885],[-89.14345,39.91765],[-89.21785,39.91699]]]},"properties":{"GEOID":"17115","NAME":"Macon"}},
{"type":"Feature","geometry":{"type":"Polygon","coordinates":[[[-90.91347,40.10446],[-90.91667,39.84493],[-90.57142,39.83896],[-90.58353,39.87675],[-90.53686,39.92188],[-90.51375,39.98789],[-90.60195,40.00332],[-90.67801,40.05275],[-90.69601,40.10397],[-90.91347,40.10446]]]},"properties":{"GEOID":"17009","NAME":"Brown"}},
{"type":"Feature","geometry":{"type":"Polygon","coordinates":[[[-89.86235,41.584],[-89.85737,41.51837],[-89.85762,41.23448],[-89.63871,41.23386],[-89.63854,41.14855],[-89.4661,41.14852],[-89.46639,41.23387],[-89.35673,41.23304],[-89.33533,41.30074],[-89.25912,41.32253],[-89.1637,41.31019],[-89.16656,41.58529],[-89.63149,41.58495],[-89.86235,41.584]]]},"properties":{"GEOID":"17011","NAME":"Bureau"}},
{"type":"Feature","geometry":{"type":"Polygon","coordinates":[[[-88.93973,42.15232],[-88.94128,41.89175],[-88.93868,41.62832],[-88.60224,41.63139],[-88.60193,41.71956],[-88.60196,42.06647],[-88.58866,42.15359],[-88.70558,42.15354],[-88.93973,42.15232]]]},"properties":{"GEOID":"17037","NAME":"DeKalb"}},
{"type":"Feature","geometry":{"type":"Polygon","coordinates":[[[-89.60298,40.32013],[-89.60169,40.12238],[-89.57913,40.09242],[-89.57829,39.97613],[-89.48383,39.97673],[-89.4835,39.93315],[-89.40498,39.91819],[-89.21785,39.91699],[-89.14345,39.91765],[-89.14476,40.04885],[-89.14876,40.28204],[-89.26265,40.28092],[-89.26374,40.32534],[-89.60298,40.32013]]]},"properties":{"GEOID":"17107","NAME":"Logan"}},
{"type":"Feature","geometry":{"type":"Polygon","coordinates":[[[-89.98456,41.14939],[-89.98548,40.97449],[-89.63873,40.97371],[-89.63854,41.14855],[-89.63871,41.23386],[-89.85762,41.23448],[-89.86815,41.14949],[-89.98456,41.14939]]]},"properties":{"GEOID":"17175","NAME":"Stark"}},
{"type":"Feature","geometry":{"type":"Polygon","coordinates":[[[-88.47207,39.65159],[-88.4705,39.44704],[-88.47083,39.37452],[-88.01212,39.37897],[-88.01394,39.48079],[-87.96018,39.48131],[-87.96635,39.68597],[-88.06301,39.68131],[-88.06352,39.65266],[-88.47207,39.65159]]]},"properties":{"GEOID":"17029","NAME":"Coles"}},
{"type":"Feature","geometry":{"type":"Polygon","coordinates":[[[-90.24238,41.78296],[-90.22975,41.67538],[-90.16185,41.64461],[-90.18554,41.58457],[-89.86235,41.584],[-89.63149,41.58495],[-89.62933,41.90162],[-89.68537,41.93034],[-90.15184,41.92892],[-90.18797,41.80316],[-90.24238,41.78296]]]},"properties":{"GEOID":"17195","NAME":"Whiteside"}},
{"type":"Feature","geometry":{"type":"Polygon","coordinates":[[[-88.74567,39.79215],[-88.75784,39.73991],[-88.81271,39.74049],[-88.81057,39.65322],[-88.80905,39.58024],[-88.71746,39.57934],[-88.71687,39.52121],[-88.64147,39.52096],[-88.58454,39.47699],[-88.58427,39.44758],[-88.4705,39.44704],[-88.47207,39.65159],[-88.47318,39.79184],[-88.74567,39.79215]]]},"properties":{"GEOID":"17139","NAME":"Moultrie"}},
{"type":"Feature","geometry":{"type":"Polygon","coordinates":[[[-87.96018,39.48131],[-88.01394,39.48079],[-88.01212,39.37897],[-88.00777,39.17392],[-87.95038,39.17488],[-87.74617,39.17922],[-87.62937,39.15753],[-87.57456,39.2184],[-87.60411,39.25946],[-87.58908,39.33383],[-87.53165,39.34806],[-87.53166,39.47711],[-87.68762,39.48736],[-87.96018,39.48131]]]},"properties":{"GEOID":"17023","NAME":"Clark"}},
{"type":"Feature","geometry":{"type":"Polygon","coordinates":[[[-89.52173,37.56621],[-89.51645,37.53556],[-89.42246,37.39713],[-89.43604,37.34444],[-89.48652,37.33455],[-89.24857,37.3353],[-89.0448,37.32972],[-89.0414,37.59658],[-89.15362,37.60024],[-89.45318,37.59998],[-89.46508,37.56441],[-89.52152,37.57215],[-89.52173,37.56621]]]},"properties":{"GEOID":"17181","NAME":"Union"}},
{"type":"Feature","geometry":{"type":"Polygon","coordinates":[[[-89.24857,37.3353],[-89.20272,37.28938],[-89.2485,37.25969],[-89.26731,37.18053],[-89.25397,37.09939],[-89.17188,37.06818],[-89.02998,37.21114],[-88.93437,37.22509],[-88.92794,37.22616],[-88.92876,37.30285],[-89.01838,37.3091],[-89.0448,37.32972],[-89.24857,37.3353]]]},"properties":{"GEOID":"17153","NAME":"Pulaski"}},
{"type":"Feature","geometry":{"type":"Polygon","coordinates":[[[-90.61377,39.39542],[-90.62229,39.36509],[-90.59123,39.19862],[-90.60357,39.11759],[-90.58059,39.18489],[-90.48762,39.17501],[-90.31329,39.17429],[-90.31393,39.22513],[-90.20177,39.2255],[-90.14812,39.26195],[-90.15378,39.52031],[-90.30183,39.52034],[-90.58105,39.52173],[-90.6105,39.45745],[-90.61377,39.39542]]]},"properties":{"GEOID":"17061","NAME":"Greene"}},
{"type":"Feature","geometry":{"type":"Polygon","coordinates":[[[-89.70166,39.52332],[-89.70369,39.34803],[-89.69855,38.99898],[-89.63926,38.99913],[-89.58634,39.02833],[-89.25031,39.02819],[-89.25051,39.21751],[-89.13946,39.21777],[-89.13981,39.34889],[-89.53084,39.34886],[-89.53353,39.52459],[-89.70166,39.52332]]]},"properties":{"GEOID":"17135","NAME":"Montgomery"}}
]}